{
 "type": "FeatureCollection",
 "features": [
  {
   "type": "Feature",
   "geometry": {
    "type": "Point",
    "coordinates": [
     -74.22055278,
     40.60462778,
     518.1600000000001
    ]
   },
   "properties": {
    "waypoint_id": "COWWE",
    "segment": "final_segment",
    "sequence_number": 20,
    "path_terminator": "TF",
    "alt_type": "AT_OR_ABOVE",
    "alt_lower_ft": 1700
   }
  },
  {
   "type": "Feature",
   "geometry": {
    "type": "Point",
    "coordinates": [
     -74.172375,
     40.680525,
     20.1168
    ]
   },
   "properties": {
    "waypoint_id": "RW04R",
    "segment": "final_segment",
    "sequence_number": 30,
    "path_terminator": "TF",
    "alt_type": "AT",
    "alt_lower_ft": 66
   }
  },
  {
   "type": "Feature",
   "geometry": {
    "type": "Point",
    "coordinates": [
     -74.40245,
     40.48602778,
     1219.2
    ]
   },
   "properties": {
    "waypoint_id": "KILMA",
    "segment": "initial_approach_segments",
    "sequence_number": 10,
    "path_terminator": "IF",
    "alt_type": "AT_OR_BELOW",
    "alt_lower_ft": 4000
   }
  },
  {
   "type": "Feature",
   "geometry": {
    "type": "Point",
    "coordinates": [
     -74.27761667,
     40.51448889,
     853.44
    ]
   },
   "properties": {
    "waypoint_id": "ISACE",
    "segment": "initial_approach_segments",
    "sequence_number": 20,
    "path_terminator": "TF",
    "alt_type": "AT",
    "alt_lower_ft": 2800
   }
  },
  {
   "type": "Feature",
   "geometry": {
    "type": "Point",
    "coordinates": [
     -74.27761667,
     40.51448889,
     853.44
    ]
   },
   "properties": {
    "waypoint_id": "ISACE",
    "segment": "intermediate_segment",
    "sequence_number": 10,
    "path_terminator": "IF",
    "alt_type": "AT",
    "alt_lower_ft": 2800
   }
  },
  {
   "type": "Feature",
   "geometry": {
    "type": "Point",
    "coordinates": [
     -74.06226667,
     40.73940278,
     0.0
    ]
   },
   "properties": {
    "waypoint_id": "TYNIE",
    "segment": "missed_approach_segment",
    "sequence_number": 50,
    "path_terminator": "DF",
    "alt_type": null,
    "alt_lower_ft": null
   }
  },
  {
   "type": "Feature",
   "geometry": {
    "type": "Point",
    "coordinates": [
     -74.05945,
     40.801675,
     609.6
    ]
   },
   "properties": {
    "waypoint_id": "NEBTE",
    "segment": "missed_approach_segment",
    "sequence_number": 60,
    "path_terminator": "TF",
    "alt_type": "AT_OR_BELOW",
    "alt_lower_ft": 2000
   }
  },
  {
   "type": "Feature",
   "geometry": {
    "type": "Point",
    "coordinates": [
     -74.17928333,
     40.85513056,
     914.4000000000001
    ]
   },
   "properties": {
    "waypoint_id": "FLYRS",
    "segment": "missed_approach_segment",
    "sequence_number": 70,
    "path_terminator": "TF",
    "alt_type": "AT_OR_ABOVE",
    "alt_lower_ft": 3000
   }
  },
  {
   "type": "Feature",
   "geometry": {
    "type": "Point",
    "coordinates": [
     -74.17928333,
     40.85513056,
     914.4000000000001
    ]
   },
   "properties": {
    "waypoint_id": "FLYRS",
    "segment": "missed_approach_segment",
    "sequence_number": 80,
    "path_terminator": "HM",
    "alt_type": "AT_OR_ABOVE",
    "alt_lower_ft": 3000
   }
  },
  {
   "type": "Feature",
   "geometry": {
    "type": "LineString",
    "coordinates": [
     [
      -74.22055278,
      40.60462778,
      518.1600000000001
     ],
     [
      -74.172375,
      40.680525,
      20.1168
     ],
     [
      -74.40245,
      40.48602778,
      1219.2
     ],
     [
      -74.27761667,
      40.51448889,
      853.44
     ],
     [
      -74.27761667,
      40.51448889,
      853.44
     ],
     [
      -74.06226667,
      40.73940278,
      0.0
     ],
     [
      -74.05945,
      40.801675,
      609.6
     ],
     [
      -74.17928333,
      40.85513056,
      914.4000000000001
     ],
     [
      -74.17928333,
      40.85513056,
      914.4000000000001
     ]
    ]
   },
   "properties": {
    "role": "route"
   }
  }
 ]
}