{
 "type": "FeatureCollection",
 "features": [
  {
   "type": "Feature",
   "geometry": {
    "type": "Point",
    "coordinates": [
     -73.87199444,
     40.69476944,
     457.20000000000005
    ]
   },
   "properties": {
    "waypoint_id": "CAXUN",
    "segment": "final_segment",
    "sequence_number": 20,
    "path_terminator": "CF",
    "alt_type": "AT",
    "alt_lower_ft": 1500
   }
  },
  {
   "type": "Feature",
   "geometry": {
    "type": "Point",
    "coordinates": [
     -73.78743056,
     40.65649167,
     21.640800000000002
    ]
   },
   "properties": {
    "waypoint_id": "RW13L",
    "segment": "final_segment",
    "sequence_number": 30,
    "path_terminator": "CF",
    "alt_type": "AT",
    "alt_lower_ft": 71
   }
  },
  {
   "type": "Feature",
   "geometry": {
    "type": "Point",
    "coordinates": [
     -73.98416389,
     40.71509444,
     883.9200000000001
    ]
   },
   "properties": {
    "waypoint_id": "BUZON",
    "segment": "initial_approach_segments",
    "sequence_number": 10,
    "path_terminator": "IF",
    "alt_type": "AT",
    "alt_lower_ft": 2900
   }
  },
  {
   "type": "Feature",
   "geometry": {
    "type": "Point",
    "coordinates": [
     -74.02663889,
     40.44628889,
     0.0
    ]
   },
   "properties": {
    "waypoint_id": "COVIR",
    "segment": "initial_approach_segments",
    "sequence_number": 10,
    "path_terminator": "IF",
    "alt_type": null,
    "alt_lower_ft": null
   }
  },
  {
   "type": "Feature",
   "geometry": {
    "type": "Point",
    "coordinates": [
     -74.04396667,
     40.62532222,
     0.0
    ]
   },
   "properties": {
    "waypoint_id": "KMCHI",
    "segment": "initial_approach_segments",
    "sequence_number": 10,
    "path_terminator": "IF",
    "alt_type": null,
    "alt_lower_ft": null
   }
  },
  {
   "type": "Feature",
   "geometry": {
    "type": "Point",
    "coordinates": [
     -73.90968056,
     40.71179722,
     640.08
    ]
   },
   "properties": {
    "waypoint_id": "TELEX",
    "segment": "initial_approach_segments",
    "sequence_number": 20,
    "path_terminator": "TF",
    "alt_type": "AT_OR_ABOVE",
    "alt_lower_ft": 2100
   }
  },
  {
   "type": "Feature",
   "geometry": {
    "type": "Point",
    "coordinates": [
     -74.04396667,
     40.62532222,
     883.9200000000001
    ]
   },
   "properties": {
    "waypoint_id": "KMCHI",
    "segment": "initial_approach_segments",
    "sequence_number": 20,
    "path_terminator": "TF",
    "alt_type": "AT_OR_ABOVE",
    "alt_lower_ft": 2900
   }
  },
  {
   "type": "Feature",
   "geometry": {
    "type": "Point",
    "coordinates": [
     -73.98416389,
     40.71509444,
     883.9200000000001
    ]
   },
   "properties": {
    "waypoint_id": "BUZON",
    "segment": "initial_approach_segments",
    "sequence_number": 20,
    "path_terminator": "TF",
    "alt_type": "AT",
    "alt_lower_ft": 2900
   }
  },
  {
   "type": "Feature",
   "geometry": {
    "type": "Point",
    "coordinates": [
     -73.98416389,
     40.71509444,
     883.9200000000001
    ]
   },
   "properties": {
    "waypoint_id": "BUZON",
    "segment": "initial_approach_segments",
    "sequence_number": 30,
    "path_terminator": "TF",
    "alt_type": "AT",
    "alt_lower_ft": 2900
   }
  },
  {
   "type": "Feature",
   "geometry": {
    "type": "Point",
    "coordinates": [
     -73.90968056,
     40.71179722,
     640.08
    ]
   },
   "properties": {
    "waypoint_id": "TELEX",
    "segment": "initial_approach_segments",
    "sequence_number": 30,
    "path_terminator": "TF",
    "alt_type": "AT_OR_ABOVE",
    "alt_lower_ft": 2100
   }
  },
  {
   "type": "Feature",
   "geometry": {
    "type": "Point",
    "coordinates": [
     -73.90968056,
     40.71179722,
     640.08
    ]
   },
   "properties": {
    "waypoint_id": "TELEX",
    "segment": "initial_approach_segments",
    "sequence_number": 40,
    "path_terminator": "TF",
    "alt_type": "AT_OR_ABOVE",
    "alt_lower_ft": 2100
   }
  },
  {
   "type": "Feature",
   "geometry": {
    "type": "Point",
    "coordinates": [
     -73.90968056,
     40.71179722,
     640.08
    ]
   },
   "properties": {
    "waypoint_id": "TELEX",
    "segment": "intermediate_segment",
    "sequence_number": 10,
    "path_terminator": "IF",
    "alt_type": "AT",
    "alt_lower_ft": 2100
   }
  },
  {
   "type": "Feature",
   "geometry": {
    "type": "Point",
    "coordinates": [
     -73.30367778,
     40.79176667,
     1219.2
    ]
   },
   "properties": {
    "waypoint_id": "DPK",
    "segment": "missed_approach_segment",
    "sequence_number": 50,
    "path_terminator": "DF",
    "alt_type": "AT_OR_ABOVE",
    "alt_lower_ft": 4000
   }
  },
  {
   "type": "Feature",
   "geometry": {
    "type": "Point",
    "coordinates": [
     -73.30367778,
     40.79176667,
     1219.2
    ]
   },
   "properties": {
    "waypoint_id": "DPK",
    "segment": "missed_approach_segment",
    "sequence_number": 60,
    "path_terminator": "HM",
    "alt_type": "AT_OR_ABOVE",
    "alt_lower_ft": 4000
   }
  },
  {
   "type": "Feature",
   "geometry": {
    "type": "LineString",
    "coordinates": [
     [
      -73.87199444,
      40.69476944,
      457.20000000000005
     ],
     [
      -73.78743056,
      40.65649167,
      21.640800000000002
     ],
     [
      -73.98416389,
      40.71509444,
      883.9200000000001
     ],
     [
      -74.02663889,
      40.44628889,
      0.0
     ],
     [
      -74.04396667,
      40.62532222,
      0.0
     ],
     [
      -73.90968056,
      40.71179722,
      640.08
     ],
     [
      -74.04396667,
      40.62532222,
      883.9200000000001
     ],
     [
      -73.98416389,
      40.71509444,
      883.9200000000001
     ],
     [
      -73.98416389,
      40.71509444,
      883.9200000000001
     ],
     [
      -73.90968056,
      40.71179722,
      640.08
     ],
     [
      -73.90968056,
      40.71179722,
      640.08
     ],
     [
      -73.90968056,
      40.71179722,
      640.08
     ],
     [
      -73.30367778,
      40.79176667,
      1219.2
     ],
     [
      -73.30367778,
      40.79176667,
      1219.2
     ]
    ]
   },
   "properties": {
    "role": "route"
   }
  }
 ]
}