{
 "type": "FeatureCollection",
 "features": [
  {
   "type": "Feature",
   "geometry": {
    "type": "Point",
    "coordinates": [
     -73.69376667,
     40.72328889,
     548.64
    ]
   },
   "properties": {
    "waypoint_id": "ZALPO",
    "segment": "final_segment",
    "sequence_number": 20,
    "path_terminator": "TF",
    "alt_type": "AT_OR_ABOVE",
    "alt_lower_ft": 1800
   }
  },
  {
   "type": "Feature",
   "geometry": {
    "type": "Point",
    "coordinates": [
     -73.75486111,
     40.64523611,
     19.812
    ]
   },
   "properties": {
    "waypoint_id": "RW22L",
    "segment": "final_segment",
    "sequence_number": 30,
    "path_terminator": "TF",
    "alt_type": "AT",
    "alt_lower_ft": 65
   }
  },
  {
   "type": "Feature",
   "geometry": {
    "type": "Point",
    "coordinates": [
     -73.30367778,
     40.79176667,
     0.0
    ]
   },
   "properties": {
    "waypoint_id": "DPK",
    "segment": "initial_approach_segments",
    "sequence_number": 10,
    "path_terminator": "IF",
    "alt_type": null,
    "alt_lower_ft": null
   }
  },
  {
   "type": "Feature",
   "geometry": {
    "type": "Point",
    "coordinates": [
     -73.62730556,
     40.80795,
     609.6
    ]
   },
   "properties": {
    "waypoint_id": "NAYIK",
    "segment": "initial_approach_segments",
    "sequence_number": 20,
    "path_terminator": "TF",
    "alt_type": "AT_OR_ABOVE",
    "alt_lower_ft": 2000
   }
  },
  {
   "type": "Feature",
   "geometry": {
    "type": "Point",
    "coordinates": [
     -73.62730556,
     40.80795,
     609.6
    ]
   },
   "properties": {
    "waypoint_id": "NAYIK",
    "segment": "intermediate_segment",
    "sequence_number": 10,
    "path_terminator": "IF",
    "alt_type": "AT_OR_ABOVE",
    "alt_lower_ft": 2000
   }
  },
  {
   "type": "Feature",
   "geometry": {
    "type": "Point",
    "coordinates": [
     -73.78844722,
     40.60224167,
     0.0
    ]
   },
   "properties": {
    "waypoint_id": "FOLER",
    "segment": "missed_approach_segment",
    "sequence_number": 50,
    "path_terminator": "DF",
    "alt_type": null,
    "alt_lower_ft": null
   }
  },
  {
   "type": "Feature",
   "geometry": {
    "type": "Point",
    "coordinates": [
     -73.75694167,
     40.31619167,
     914.4000000000001
    ]
   },
   "properties": {
    "waypoint_id": "CHANT",
    "segment": "missed_approach_segment",
    "sequence_number": 60,
    "path_terminator": "TF",
    "alt_type": "AT_OR_ABOVE",
    "alt_lower_ft": 3000
   }
  },
  {
   "type": "Feature",
   "geometry": {
    "type": "Point",
    "coordinates": [
     -73.75694167,
     40.31619167,
     914.4000000000001
    ]
   },
   "properties": {
    "waypoint_id": "CHANT",
    "segment": "missed_approach_segment",
    "sequence_number": 70,
    "path_terminator": "HM",
    "alt_type": "AT_OR_ABOVE",
    "alt_lower_ft": 3000
   }
  },
  {
   "type": "Feature",
   "geometry": {
    "type": "LineString",
    "coordinates": [
     [
      -73.69376667,
      40.72328889,
      548.64
     ],
     [
      -73.75486111,
      40.64523611,
      19.812
     ],
     [
      -73.30367778,
      40.79176667,
      0.0
     ],
     [
      -73.62730556,
      40.80795,
      609.6
     ],
     [
      -73.62730556,
      40.80795,
      609.6
     ],
     [
      -73.78844722,
      40.60224167,
      0.0
     ],
     [
      -73.75694167,
      40.31619167,
      914.4000000000001
     ],
     [
      -73.75694167,
      40.31619167,
      914.4000000000001
     ]
    ]
   },
   "properties": {
    "role": "route"
   }
  }
 ]
}